INTELSAT 23 (IS-23)     
1 38867U 12057A   26196.10097943 -.00000294  00000+0  00000+0 0  9998
2 38867   0.0150  37.4174 0000378 151.4629  87.4414  1.00273430 50230
BEIDOU-2 G6             
1 38953U 12059A   26196.64497419 -.00000188  00000+0  00000+0 0  9999
2 38953   4.4908  73.2097 0008728 327.1870 209.2686  1.00273623 50198
LUCH-5B                 
1 38977U 12061A   26196.41122167 -.00000152  00000+0  00000+0 0  9999
2 38977  10.5430  49.5962 0003919 147.7446 227.6811  1.00270368 49893
YAMAL 300K              
1 38978U 12061B   26196.52203784  .00000000  00000+0  00000+0 0  9998
2 38978   0.0177  53.5050 0000654 200.5088  50.2440  1.00267900 49911
STAR ONE C3             
1 38991U 12062A   26196.11449561  .00000000  00000+0  00000+0 0  9994
2 38991   0.0251  55.7883 0002395  73.6130 129.7881  1.00266413 50043
EUTELSAT 21B            
1 38992U 12062B   26196.56136677  .00000120  00000+0  00000+0 0  9998
2 38992   0.0672  13.9374 0003238 107.2538  35.8651  1.00270471 50114
ECHOSTAR 16             
1 39008U 12065A   26196.12418443 -.00000291  00000+0  00000+0 0  9996
2 39008   0.0165  61.2237 0002136  47.2692 167.6845  1.00269664 49922
ZHONGXING-12            
1 39017U 12067A   26196.64566753 -.00000217  00000+0  00000+0 0  9991
2 39017   0.0352  93.9939 0002593  19.3897 140.0403  1.00271494 49799
EUTELSAT 70B            
1 39020U 12069A   26196.57101507 -.00000053  00000+0  00000+0 0  9999
2 39020   0.0609   1.7280 0003633 111.9357  95.8088  1.00271412 49796
YAMAL 402               
1 39022U 12070A   26196.63925417  .00000075  00000+0  00000+0 0  9997
2 39022   1.3358  83.8019 0003584  26.6624 108.0353  1.00271581 49685
SKYNET 5D               
1 39034U 12075A   26196.63882083  .00000090  00000+0  00000+0 0  9993
2 39034   0.0681 359.1402 0003404 124.6825  92.3760  1.00270348 49442
MEXSAT 3                
1 39035U 12075B   26196.60562735  .00000000  00000+0  00000+0 0  9991
2 39035   0.0206  59.7846 0001046  49.2916 287.6227  1.00268817  7331
TDRS 11                 
1 39070U 13004A   26196.59384062  .00000070  00000+0  00000+0 0  9993
2 39070   3.5621  31.7020 0004507  31.9638 269.4200  1.00279563 46979
AMAZONAS 3              
1 39078U 13006A   26196.54498670  .00000000  00000+0  00000+0 0  9992
2 39078   0.0086 208.7979 0003336 303.0936 276.7087  1.00269747 45196
AZERSPACE 1             
1 39079U 13006B   26196.63743417  .00000000  00000+0  00000+0 0  9995
2 39079   0.0241  51.2292 0001810  97.9632  59.7572  1.00269708 49094
SBIRS GEO-2 (USA 241)   
1 39120U 13011A   26195.94750374 -.00000297  00000+0  00000+0 0  9990
2 39120   4.5475  52.5080 0001988  54.8551 116.7384  1.00271309 48810
EUTELSAT 117 WEST A     
1 39122U 13012A   26196.60519402 -.00000023  00000+0  00000+0 0  9999
2 39122   0.0498 272.0720 0002809 206.9250 275.5246  1.00274193 48711
ANIK G1                 
1 39127U 13014A   26196.60710069 -.00000084  00000+0  00000+0 0  9995
2 39127   0.0462 241.7023 0001672 243.8013 279.1938  1.00271425 48533
ZHONGXING-11            
1 39157U 13020A   26196.66964080 -.00000300  00000+0  00000+0 0  9996
2 39157   0.0571 276.7135 0002038 163.1800 192.5708  1.00269266 48188
EUTELSAT 7B             
1 39163U 13022A   26196.20201088  .00000039  00000+0  00000+0 0  9995
2 39163   0.0703 337.8379 0003614  68.1765 326.7754  1.00273555 48229
WGS F5 (USA 243)        
1 39168U 13024A   26196.04769998  .00000000  00000+0  00000+0 0  9991
2 39168   0.0253  63.1362 0000268 183.8060  10.6390  1.00268810 47457
SES-6                   
1 39172U 13026A   26196.48794642 -.00000271  00000+0  00000+0 0  9991
2 39172   0.0231 336.4055 0002559 118.2790 333.8040  1.00272817 48006
IRNSS-1A                
1 39199U 13034A   26191.72043649  .00000047  00000+0  00000+0 0  9995
2 39199  35.7704  63.5328 0017567 183.4462 356.2994  1.00281941 47601
MUOS-2                  
1 39206U 13036A   26196.44860498 -.00000025  00000+0  00000+0 0  9996
2 39206   5.0499  45.5541 0052710 176.3637  44.8284  1.00272437 47479
ALPHASAT                
1 39215U 13038A   26194.99370941  .00000127  00000+0  00000+0 0  9997
2 39215   2.9990   1.1529 0002285 138.9239 174.3915  1.00271961 44286
INSAT-3D                
1 39216U 13038B   26196.58271512 -.00000351  00000+0  00000+0 0  9999
2 39216   1.9974  82.1805 0000529  79.9326 110.5838  1.00268330 47368
WGS F6 (USA 244)        
1 39222U 13041A   26196.38202501  .00000079  00000+0  00000+0 0  9996
2 39222   0.0181  40.9094 0000194 148.5138 106.1406  1.00269940 46346
ES'HAIL 1               
1 39233U 13044A   26195.56413377  .00000136  00000+0  00000+0 0  9999
2 39233   0.0508 343.0754 0002153 133.9068  44.0708  1.00274643 46901
GSAT-7                  
1 39234U 13044B   26196.57170840 -.00000087  00000+0  00000+0 0  9993
2 39234   0.1520  89.5525 0003196 176.8625 306.7654  1.00271358 45545
AMOS-4                  
1 39237U 13045A   26196.49861187 -.00000002  00000+0  00000+0 0  9996
2 39237   0.0285 253.5081 0002171 190.5913  93.7424  1.00270692 47247
AEHF-3 (USA 246)        
1 39256U 13050A   26196.57614199  .00000016  00000+0  00000+0 0  9995
2 39256   5.3614  66.9228 0088479 187.6887 121.9423  1.00271137 45935
ASTRA 2E                
1 39285U 13056A   26196.56266677  .00000140  00000+0  00000+0 0  9994
2 39285   0.0760 313.7848 0002669 154.2324  56.4252  1.00269143 46707
