OBJECT_NAME,OBJECT_ID,EPOCH,MEAN_MOTION,ECCENTRICITY,INCLINATION,RA_OF_ASC_NODE,ARG_OF_PERICENTER,MEAN_ANOMALY,EPHEMERIS_TYPE,CLASSIFICATION_TYPE,NORAD_CAT_ID,ELEMENT_SET_NO,REV_AT_EPOCH,BSTAR,MEAN_MOTION_DOT,MEAN_MOTION_DDOT
INTELSAT 23 (IS-23),2012-057A,2026-07-15T02:25:24.622752,1.00273430,.0000378,0.0150,37.4174,151.4629,87.4414,0,U,38867,999,5023,0,-.294E-5,0
BEIDOU-2 G6,2012-059A,2026-07-15T15:28:45.770016,1.00273623,.00087286,4.4908,73.2097,327.1870,209.2686,0,U,38953,999,5019,0,-.188E-5,0
LUCH-5B,2012-061A,2026-07-15T09:52:09.552288,1.00270368,.0003919,10.5430,49.5962,147.7446,227.6811,0,U,38977,999,4989,0,-.152E-5,0
YAMAL 300K,2012-061B,2026-07-15T12:31:44.069376,1.00267900,.00006544,0.0177,53.5050,200.5088,50.2440,0,U,38978,999,4991,0,0,0
STAR ONE C3,2012-062A,2026-07-15T02:44:52.420704,1.00266413,.00023958,0.0251,55.7883,73.6130,129.7881,0,U,38991,999,5004,0,0,0
EUTELSAT 21B,2012-062B,2026-07-15T13:28:22.088928,1.00270471,.00032388,0.0672,13.9374,107.2538,35.8651,0,U,38992,999,5011,0,.12E-5,0
ECHOSTAR 16,2012-065A,2026-07-15T02:58:49.534752,1.00269664,.00021365,0.0165,61.2237,47.2692,167.6845,0,U,39008,999,4992,0,-.291E-5,0
ZHONGXING-12,2012-067A,2026-07-15T15:29:45.674592,1.00271494,.00025932,0.0352,93.9939,19.3897,140.0403,0,U,39017,999,4979,0,-.217E-5,0
EUTELSAT 70B,2012-069A,2026-07-15T13:42:15.702048,1.00271412,.00036337,0.0609,1.7280,111.9357,95.8088,0,U,39020,999,4979,0,-.53E-6,0
YAMAL 402,2012-070A,2026-07-15T15:20:31.560288,1.00271581,.00035841,1.3358,83.8019,26.6624,108.0353,0,U,39022,999,4968,0,.75E-6,0
SKYNET 5D,2012-075A,2026-07-15T15:19:54.119712,1.00270348,.00034043,0.0681,359.1402,124.6825,92.3760,0,U,39034,999,4944,0,.9E-6,0
MEXSAT 3,2012-075B,2026-07-15T14:32:06.203040,1.00268817,.00010468,0.0206,59.7846,49.2916,287.6227,0,U,39035,999,733,0,0,0
TDRS 11,2013-004A,2026-07-15T14:15:07.829568,1.00279563,.00045074,3.5621,31.7020,31.9638,269.4200,0,U,39070,999,4697,0,.7E-6,0
AMAZONAS 3,2013-006A,2026-07-15T13:04:46.850880,1.00269747,.00033367,0.0086,208.7979,303.0936,276.7087,0,U,39078,999,4519,0,0,0
AZERSPACE 1,2013-006B,2026-07-15T15:17:54.312288,1.00269708,.00018101,0.0241,51.2292,97.9632,59.7572,0,U,39079,999,4909,0,0,0
SBIRS GEO-2 (USA 241),2013-011A,2026-07-14T22:44:24.323136,1.00271309,.0001988,4.5475,52.5080,54.8551,116.7384,0,U,39120,999,4881,0,-.297E-5,0
EUTELSAT 117 WEST A,2013-012A,2026-07-15T14:31:28.763328,1.00274193,.00028099,0.0498,272.0720,206.9250,275.5246,0,U,39122,999,4871,0,-.23E-6,0
ANIK G1,2013-014A,2026-07-15T14:34:13.499616,1.00271425,.00016721,0.0462,241.7023,243.8013,279.1938,0,U,39127,999,4853,0,-.84E-6,0
ZHONGXING-11,2013-020A,2026-07-15T16:04:16.965120,1.00269266,.00020385,0.0571,276.7135,163.1800,192.5708,0,U,39157,999,4818,0,-.3E-5,0
EUTELSAT 7B,2013-022A,2026-07-15T04:50:53.740032,1.00273555,.00036148,0.0703,337.8379,68.1765,326.7754,0,U,39163,999,4822,0,.39E-6,0
WGS F5 (USA 243),2013-024A,2026-07-15T01:08:41.278272,1.00268810,.00002687,0.0253,63.1362,183.8060,10.6390,0,U,39168,999,4745,0,0,0
SES-6,2013-026A,2026-07-15T11:42:38.570688,1.00272817,.00025599,0.0231,336.4055,118.2790,333.8040,0,U,39172,999,4800,0,-.271E-5,0
IRNSS-1A,2013-034A,2026-07-10T17:17:25.712736,1.00281941,.0017567,35.7704,63.5328,183.4462,356.2994,0,U,39199,999,4760,0,.47E-6,0
MUOS-2,2013-036A,2026-07-15T10:45:59.470272,1.00272437,.00527107,5.0499,45.5541,176.3637,44.8284,0,U,39206,999,4747,0,-.25E-6,0
ALPHASAT,2013-038A,2026-07-13T23:50:56.493024,1.00271961,.00022854,2.9990,1.1529,138.9239,174.3915,0,U,39215,999,4428,0,.127E-5,0
INSAT-3D,2013-038B,2026-07-15T13:59:06.586368,1.00268330,.00005295,1.9974,82.1805,79.9326,110.5838,0,U,39216,999,4736,0,-.351E-5,0
WGS F6 (USA 244),2013-041A,2026-07-15T09:10:06.960864,1.00269940,.00001949,0.0181,40.9094,148.5138,106.1406,0,U,39222,999,4634,0,.79E-6,0
ES'HAIL 1,2013-044A,2026-07-14T13:32:21.157728,1.00274643,.0002153,0.0508,343.0754,133.9068,44.0708,0,U,39233,999,4690,0,.136E-5,0
GSAT-7,2013-044B,2026-07-15T13:43:15.605760,1.00271358,.00031962,0.1520,89.5525,176.8625,306.7654,0,U,39234,999,4554,0,-.87E-6,0
AMOS-4,2013-045A,2026-07-15T11:58:00.065568,1.00270692,.0002171,0.0285,253.5081,190.5913,93.7424,0,U,39237,999,4724,0,-.2E-7,0
AEHF-3 (USA 246),2013-050A,2026-07-15T13:49:38.667936,1.00271137,.00884798,5.3614,66.9228,187.6887,121.9423,0,U,39256,999,4593,0,.16E-6,0
ASTRA 2E,2013-056A,2026-07-15T13:30:14.408928,1.00269143,.00026694,0.0760,313.7848,154.2324,56.4252,0,U,39285,999,4670,0,.14E-5,0
